NORAD_CAT_ID,OBJECT_NAME,OBJECT_TYPE,EPOCH,MEAN_MOTION,ECCENTRICITY,INCLINATION,RA_OF_ASC_NODE,ARG_OF_PERICENTER,MEAN_ANOMALY,BSTAR,MEAN_MOTION_DOT,MEAN_MOTION_DDOT,TLE_LINE0,TLE_LINE1,TLE_LINE2,SEMIMAJOR_AXIS,PERIOD,APOGEE,PERIGEE,DECAYED
50188.0,STARLINK-3275,PAYLOAD,2024-04-16 15:03:05,15.12123385,0.0001371,53.2193,84.9774,92.3337,267.7813,6.8041e-05,8.88e-06,0.0,0 STARLINK-3275,1 50188U 21125AJ  24107.62714845  .00000888  00000-0  68041-4 0  9991,2 50188  53.2193  84.9774 0001371  92.3337 267.7813 15.12123385129462,6907.863,95.23,530.675,528.78,0.0
50188.0,STARLINK-3275,PAYLOAD,2024-04-17 08:30:03,15.1212117,0.0001284,53.2184,81.6984,101.9832,258.1306,8.8759e-05,1.25e-05,0.0,0 STARLINK-3275,1 50188U 21125AJ  24108.35420322  .00001250  00000-0  88759-4 0  9998,2 50188  53.2184  81.6984 0001284 101.9832 258.1306 15.12121170132712,6907.869,95.23,530.621,528.847,0.0
50188.0,STARLINK-3275,PAYLOAD,2024-04-18 01:57:01,15.1211375,0.0001241,53.2184,78.4169,101.9241,258.1892,-3.7406e-05,-9.49e-06,0.0,0 STARLINK-3275,1 50188U 21125AJ  24109.08127256 -.00000949  00000-0 -37406-4 0  9998,2 50188  53.2184  78.4169 0001241 101.9241 258.1892 15.12113750129685,6907.892,95.231,530.614,528.9,0.0
50188.0,STARLINK-3275,PAYLOAD,2024-04-18 08:17:45,15.12109688,0.0001236,53.2185,77.2247,103.1496,256.9636,-6.6339e-05,-1.453e-05,0.0,0 STARLINK-3275,1 50188U 21125AJ  24109.34566187 -.00001453  00000-0 -66339-4 0  9995,2 50188  53.2185  77.2247 0001236 103.1496 256.9636 15.12109688132861,6907.904,95.231,530.623,528.915,0.0
50188.0,STARLINK-3275,PAYLOAD,2024-04-19 04:55:04,15.12111247,0.0001266,53.2188,73.3485,94.544,265.5698,-7.6237e-05,-1.625e-05,0.0,0 STARLINK-3275,1 50188U 21125AJ  24110.20491562 -.00001625  00000-0 -76237-4 0  9995,2 50188  53.2188  73.3485 0001266  94.5440 265.5698 15.12111247129853,6907.9,95.231,530.639,528.89,0.0
50188.0,STARLINK-3275,PAYLOAD,2024-04-19 06:30:15,15.12112174,0.0001314,53.219,73.0503,100.8391,259.2751,-6.5247e-05,-1.434e-05,0.0,0 STARLINK-3275,1 50188U 21125AJ  24110.27101094 -.00001434  00000-0 -65247-4 0  9997,2 50188  53.2190  73.0503 0001314 100.8391 259.2751 15.12112174133006,6907.897,95.231,530.669,528.854,0.0
50188.0,STARLINK-3275,PAYLOAD,2024-04-20 04:42:41,15.1214795,0.0001533,53.2199,68.875,71.4152,288.7008,0.00032477,5.37e-05,0.0,0 STARLINK-3275,1 50188U 21125AJ  24111.19631838  .00005370  00000-0  32477-3 0  9992,2 50188  53.2199  68.8750 0001533  71.4152 288.7008 15.12147950130001,6907.788,95.229,530.712,528.594,0.0
50188.0,STARLINK-3275,PAYLOAD,2024-04-20 06:17:52,15.12152723,0.0001298,53.2193,68.5769,86.436,273.6782,0.00035079,5.825e-05,0.0,0 STARLINK-3275,1 50188U 21125AJ  24111.26240877  .00005825  00000-0  35079-3 0  9995,2 50188  53.2193  68.5769 0001298  86.4360 273.6782 15.12152723133152,6907.773,95.228,530.535,528.742,0.0
50188.0,STARLINK-3275,PAYLOAD,2024-04-21 06:05:31,15.12157772,0.0001336,53.2192,64.1058,81.9268,278.1877,0.00025367,4.13e-05,0.0,0 STARLINK-3275,1 50188U 21125AJ  24112.25383171  .00004130  00000-0  25367-3 0  9997,2 50188  53.2192  64.1058 0001336  81.9268 278.1877 15.12157772133305,6907.758,95.228,530.546,528.7,0.0
50188.0,STARLINK-3275,PAYLOAD,2024-04-22 02:42:49,15.121673,0.0001324,53.2198,60.2238,90.5094,269.6051,-0.00014837,-2.885e-05,0.0,0 STARLINK-3275,1 50188U 21125AJ  24113.11307042 -.00002885  00000-0 -14837-3 0  9993,2 50188  53.2198  60.2238 0001324  90.5094 269.6051 15.12167300130290,6907.729,95.228,530.508,528.679,0.0
50188.0,STARLINK-3275,PAYLOAD,2024-04-22 05:53:10,15.12160857,0.0001553,53.2198,59.6313,72.4684,287.6479,-0.00018543,-3.531e-05,0.0,0 STARLINK-3275,1 50188U 21125AJ  24113.24526597 -.00003531  00000-0 -18543-3 0  9992,2 50188  53.2198  59.6313 0001553  72.4684 287.6479 15.12160857130311,6907.748,95.228,530.686,528.541,0.0
50188.0,STARLINK-3275,PAYLOAD,2024-04-23 00:55:19,15.12140535,0.0001886,53.2203,56.049,64.9746,295.1443,-0.00019476,-3.692e-05,0.0,0 STARLINK-3275,1 50188U 21125AJ  24114.03841758 -.00003692  00000-0 -19476-3 0  9993,2 50188  53.2203  56.0490 0001886  64.9746 295.1443 15.12140535130438,6907.81,95.229,530.978,528.373,0.0
50188.0,STARLINK-3275,PAYLOAD,2024-04-23 05:40:51,15.12158357,0.0001379,53.2189,55.1586,91.5629,268.5522,-0.00049982,-9.005e-05,0.0,0 STARLINK-3275,1 50188U 21125AJ  24114.23670354 -.00009005  00000-0 -49982-3 0  9996,2 50188  53.2189  55.1586 0001379  91.5629 268.5522 15.12158357133605,6907.756,95.228,530.574,528.668,0.0
50188.0,STARLINK-3275,PAYLOAD,2024-04-23 19:57:29,15.12104127,0.0001615,53.2197,52.4742,93.6651,266.4527,-0.00017931,-3.419e-05,0.0,0 STARLINK-3275,1 50188U 21125AJ  24114.83158794 -.00003419  00000-0 -17931-3 0  9993,2 50188  53.2197  52.4742 0001615  93.6651 266.4527 15.12104127130558,6907.921,95.232,530.902,528.671,0.0
50188.0,STARLINK-3275,PAYLOAD,2024-04-24 05:28:33,15.12110405,0.0001456,53.2195,50.6843,92.3435,267.7725,-0.00013342,-2.621e-05,0.0,0 STARLINK-3275,1 50188U 21125AJ  24115.22816191 -.00002621  00000-0 -13342-3 0  9995,2 50188  53.2195  50.6843 0001456  92.3435 267.7725 15.12110405130614,6907.902,95.231,530.773,528.761,0.0
50188.0,STARLINK-3275,PAYLOAD,2024-04-25 02:05:53,15.12113515,0.0001054,53.2179,46.8083,129.3068,230.8019,-0.00020563,-3.878e-05,0.0,0 STARLINK-3275,1 50188U 21125AJ  24116.08741934 -.00003878  00000-0 -20563-3 0  9990,2 50188  53.2179  46.8083 0001054 129.3068 230.8019 15.12113515133880,6907.893,95.231,530.486,529.03,0.0
50188.0,STARLINK-3275,PAYLOAD,2024-04-25 22:43:14,15.12089016,9.27e-05,53.2183,42.9308,106.859,253.2506,-6.4745e-05,-1.424e-05,0.0,0 STARLINK-3275,1 50188U 21125AJ  24116.94669466 -.00001424  00000-0 -64745-4 0  9990,2 50188  53.2183  42.9308 0000927 106.8590 253.2506 15.12089016134014,6907.967,95.232,530.473,529.192,0.0
50188.0,STARLINK-3275,PAYLOAD,2024-04-26 05:03:57,15.12089004,9.29e-05,53.2183,41.7378,106.2206,253.889,-6.1531e-05,-1.368e-05,0.0,0 STARLINK-3275,1 50188U 21125AJ  24117.21108422 -.00001368  00000-0 -61531-4 0  9998,2 50188  53.2183  41.7378 0000929 106.2206 253.8890 15.12089004130912,6907.967,95.232,530.474,529.191,0.0
50188.0,STARLINK-3275,PAYLOAD,2024-04-26 11:24:40,15.12090701,9.56e-05,53.2184,40.5459,110.7165,249.3931,-6.0142e-05,-1.344e-05,0.0,0 STARLINK-3275,1 50188U 21125AJ  24117.47547253 -.00001344  00000-0 -60142-4 0  9996,2 50188  53.2184  40.5459 0000956 110.7165 249.3931 15.12090701134099,6907.962,95.232,530.488,529.167,0.0
50188.0,STARLINK-3275,PAYLOAD,2024-04-26 19:20:34,15.12086793,9.54e-05,53.2186,39.0541,104.7174,255.3925,6.2728e-06,-1.88e-06,0.0,0 STARLINK-3275,1 50188U 21125AJ  24117.80595870 -.00000188  00000-0  62728-5 0  9998,2 50188  53.2186  39.0541 0000954 104.7174 255.3925 15.12086793134149,6907.974,95.233,530.498,529.18,0.0
50188.0,STARLINK-3275,PAYLOAD,2024-04-27 11:12:21,15.1210069,0.0001081,53.2192,36.0729,104.9926,255.1187,9.7801e-05,1.406e-05,0.0,0 STARLINK-3275,1 50188U 21125AJ  24118.46691887  .00001406  00000-0  97801-4 0  9998,2 50188  53.2192  36.0729 0001081 104.9926 255.1187 15.12100690131104,6907.932,95.232,530.543,529.05,0.0
50188.0,STARLINK-3275,PAYLOAD,2024-04-27 22:18:37,15.12096265,0.0001132,53.2194,33.9857,104.93,255.1818,8.9759e-05,1.266e-05,0.0,0 STARLINK-3275,1 50188U 21125AJ  24118.92960131  .00001266  00000-0  89759-4 0  9997,2 50188  53.2194  33.9857 0001132 104.9300 255.1818 15.12096265134316,6907.945,95.232,530.592,529.028,0.0
50188.0,STARLINK-3275,PAYLOAD,2024-04-28 11:00:04,15.12092389,0.0001101,53.2193,31.5997,99.1283,260.9835,2.817e-05,1.93e-06,0.0,0 STARLINK-3275,1 50188U 21125AJ  24119.45838406  .00000193  00000-0  28170-4 0  9993,2 50188  53.2193  31.5997 0001101  99.1283 260.9835 15.12092389131251,6907.957,95.232,530.583,529.061,0.0
50188.0,STARLINK-3275,PAYLOAD,2024-04-28 18:55:59,15.12079859,0.0001255,53.2198,30.1097,102.0976,258.0158,4.1276e-05,4.21e-06,0.0,0 STARLINK-3275,1 50188U 21125AJ  24119.78887888  .00000421  00000-0  41276-4 0  9993,2 50188  53.2198  30.1097 0001255 102.0976 258.0158 15.12079859131304,6907.995,95.233,530.727,528.993,0.0
50188.0,STARLINK-3275,PAYLOAD,2024-04-28 22:06:20,15.12087989,0.0001274,53.22,29.5139,106.3395,253.7739,-7.2987e-05,-1.568e-05,0.0,0 STARLINK-3275,1 50188U 21125AJ  24119.92107289 -.00001568  00000-0 -72987-4 0  9997,2 50188  53.2200  29.5139 0001274 106.3395 253.7739 15.12087989134460,6907.97,95.233,530.715,528.955,0.0
50188.0,STARLINK-3275,PAYLOAD,2024-04-29 02:51:52,15.12094399,0.000133,53.2203,28.6181,95.5008,264.6137,-6.6572e-05,-1.456e-05,0.0,0 STARLINK-3275,1 50188U 21125AJ  24120.11936125 -.00001456  00000-0 -66572-4 0  9998,2 50188  53.2203  28.6181 0001330  95.5008 264.6137 15.12094399131354,6907.951,95.232,530.735,528.897,0.0
50188.0,STARLINK-3275,PAYLOAD,2024-04-29 10:47:46,15.1209559,0.0001413,53.2206,27.1273,94.2348,265.8807,-9.037e-05,-1.871e-05,0.0,0 STARLINK-3275,1 50188U 21125AJ  24120.44984787 -.00001871  00000-0 -90370-4 0  9995,2 50188  53.2206  27.1273 0001413  94.2348 265.8807 15.12095590134543,6907.947,95.232,530.788,528.836,0.0
50188.0,STARLINK-3275,PAYLOAD,2024-04-29 21:54:02,15.12096894,0.0001402,53.2208,25.0384,92.2316,267.8838,-4.5118e-05,-1.083e-05,0.0,0 STARLINK-3275,1 50188U 21125AJ  24120.91252572 -.00001083  00000-0 -45118-4 0  9992,2 50188  53.2208  25.0384 0001402  92.2316 267.8838 15.12096894134618,6907.943,95.232,530.777,528.84,0.0
50188.0,STARLINK-3275,PAYLOAD,2024-04-30 10:35:28,15.12097633,0.0001168,53.2189,22.6524,87.9309,272.1819,1.2018e-05,-8.8e-07,0.0,0 STARLINK-3275,1 50188U 21125AJ  24121.44130056 -.00000088  00000-0  12018-4 0  9999,2 50188  53.2189  22.6524 0001168  87.9309 272.1819 15.12097633131557,6907.941,95.232,530.613,528.999,0.0
50188.0,STARLINK-3275,PAYLOAD,2024-04-30 21:41:43,15.12095171,9.93e-05,53.2191,20.5644,92.6354,267.4754,0.00017581,2.765e-05,0.0,0 STARLINK-3275,1 50188U 21125AJ  24121.90397551  .00002765  00000-0  17581-3 0  9997,2 50188  53.2191  20.5644 0000993  92.6354 267.4754 15.12095171134764,6907.948,95.232,530.499,529.128,0.0
